[
    {
        "Altitude(m)": 556874.553322805,
        "Argument of Periapsis(deg)": 0.0,
        "Eccentricity": 0.0,
        "Inclination(deg)": 53.0,
        "Latitude(deg)": -13.15417051249004,
        "Longitude(deg)": -94.88228124948736,
        "Mean Anomaly(deg)": -163.6364,
        "RAAN(deg)": 175.0,
        "Satellite Name": "Starlink Shell 1 782",
        "Satellite Number": 782,
        "Semi-Major Axis(m)": 6931778.249405717,
        "Time(s)": 0
    },
    {
        "Altitude(m)": 557007.6441308953,
        "Argument of Periapsis(deg)": 0.00034857847951123687,
        "Eccentricity": 0.0,
        "Inclination(deg)": 53.0,
        "Latitude(deg)": -13.649422265139947,
        "Longitude(deg)": -94.52594211025391,
        "Mean Anomaly(deg)": -163.00956879644326,
        "RAAN(deg)": 174.99948122992254,
        "Satellite Name": "Starlink Shell 1 782",
        "Satellite Number": 782,
        "Semi-Major Axis(m)": 6931778.249405717,
        "Time(s)": 10
    },
    {
        "Altitude(m)": 557142.8297504035,
        "Argument of Periapsis(deg)": 0.0006971569590224737,
        "Eccentricity": 0.0,
        "Inclination(deg)": 53.0,
        "Latitude(deg)": -14.144001362004257,
        "Longitude(deg)": -94.16795445518099,
        "Mean Anomaly(deg)": -162.3827375928866,
        "RAAN(deg)": 174.99896245984505,
        "Satellite Name": "Starlink Shell 1 782",
        "Satellite Number": 782,
        "Semi-Major Axis(m)": 6931778.249405717,
        "Time(s)": 20
    },
    {
        "Altitude(m)": 557280.0674150154,
        "Argument of Periapsis(deg)": 0.0010457354385337105,
        "Eccentricity": 0.0,
        "Inclination(deg)": 53.0,
        "Latitude(deg)": -14.637880248407109,
        "Longitude(deg)": -93.80825106874441,
        "Mean Anomaly(deg)": -161.75590638932988,
        "RAAN(deg)": 174.99844368976758,
        "Satellite Name": "Starlink Shell 1 782",
        "Satellite Number": 782,
        "Semi-Major Axis(m)": 6931778.249405717,
        "Time(s)": 30
    },
    {
        "Altitude(m)": 557419.3132970459,
        "Argument of Periapsis(deg)": 0.0013943139180449475,
        "Eccentricity": 0.0,
        "Inclination(deg)": 53.0,
        "Latitude(deg)": -15.13103100161436,
        "Longitude(deg)": -93.44676350528643,
        "Mean Anomaly(deg)": -161.1290751857732,
        "RAAN(deg)": 174.99792491969012,
        "Satellite Name": "Starlink Shell 1 782",
        "Satellite Number": 782,
        "Semi-Major Axis(m)": 6931778.249405717,
        "Time(s)": 40
    },
    {
        "Altitude(m)": 557560.5225265461,
        "Argument of Periapsis(deg)": 0.0017428923975561844,
        "Eccentricity": 0.0,
        "Inclination(deg)": 53.0,
        "Latitude(deg)": -15.623425314450213,
        "Longitude(deg)": -93.08342307089953,
        "Mean Anomaly(deg)": -160.5022439822164,
        "RAAN(deg)": 174.99740614961263,
        "Satellite Name": "Starlink Shell 1 782",
        "Satellite Number": 782,
        "Semi-Major Axis(m)": 6931778.249405717,
        "Time(s)": 50
    },
    {
        "Altitude(m)": 557703.6492108677,
        "Argument of Periapsis(deg)": 0.002091470877067421,
        "Eccentricity": 0.0,
        "Inclination(deg)": 53.0,
        "Latitude(deg)": -16.115034478571253,
        "Longitude(deg)": -92.71816029246482,
        "Mean Anomaly(deg)": -159.8754127786597,
        "RAAN(deg)": 174.99688737953517,
        "Satellite Name": "Starlink Shell 1 782",
        "Satellite Number": 782,
        "Semi-Major Axis(m)": 6931778.249405717,
        "Time(s)": 60
    },
    {
        "Altitude(m)": 557848.6464547708,
        "Argument of Periapsis(deg)": 0.0024400493565786582,
        "Eccentricity": 0.0,
        "Inclination(deg)": 53.0,
        "Latitude(deg)": -16.6058293673855,
        "Longitude(deg)": -92.3509043867403,
        "Mean Anomaly(deg)": -159.248581575103,
        "RAAN(deg)": 174.9963686094577,
        "Satellite Name": "Starlink Shell 1 782",
        "Satellite Number": 782,
        "Semi-Major Axis(m)": 6931778.249405717,
        "Time(s)": 70
    },
    {
        "Altitude(m)": 557995.4663809713,
        "Argument of Periapsis(deg)": 0.002788627836089895,
        "Eccentricity": 0.0,
        "Inclination(deg)": 53.0,
        "Latitude(deg)": -17.095780418604004,
        "Longitude(deg)": -91.9815842424001,
        "Mean Anomaly(deg)": -158.62175037154634,
        "RAAN(deg)": 174.9958498393802,
        "Satellite Name": "Starlink Shell 1 782",
        "Satellite Number": 782,
        "Semi-Major Axis(m)": 6931778.249405717,
        "Time(s)": 80
    },
    {
        "Altitude(m)": 558144.0601512088,
        "Argument of Periapsis(deg)": 0.0031372063156011316,
        "Eccentricity": 0.0,
        "Inclination(deg)": 53.0,
        "Latitude(deg)": -17.58485761641313,
        "Longitude(deg)": -91.61012788930644,
        "Mean Anomaly(deg)": -157.9949191679896,
        "RAAN(deg)": 174.99533106930275,
        "Satellite Name": "Starlink Shell 1 782",
        "Satellite Number": 782,
        "Semi-Major Axis(m)": 6931778.249405717,
        "Time(s)": 90
    },
    {
        "Altitude(m)": 558294.3779877817,
        "Argument of Periapsis(deg)": 0.0034857847951123688,
        "Eccentricity": 0.0,
        "Inclination(deg)": 53.0,
        "Latitude(deg)": -18.073030473255688,
        "Longitude(deg)": -91.2364619679187,
        "Mean Anomaly(deg)": -157.36808796443285,
        "RAAN(deg)": 174.9948122992253,
        "Satellite Name": "Starlink Shell 1 782",
        "Satellite Number": 782,
        "Semi-Major Axis(m)": 6931778.249405717,
        "Time(s)": 100
    },
    {
        "Altitude(m)": 558446.36919549,
        "Argument of Periapsis(deg)": 0.003834363274623606,
        "Eccentricity": 0.0,
        "Inclination(deg)": 53.0,
        "Latitude(deg)": -18.56026801120882,
        "Longitude(deg)": -90.86051271175278,
        "Mean Anomaly(deg)": -156.74125676087615,
        "RAAN(deg)": 174.9942935291478,
        "Satellite Name": "Starlink Shell 1 782",
        "Satellite Number": 782,
        "Semi-Major Axis(m)": 6931778.249405717,
        "Time(s)": 110
    },
    {
        "Altitude(m)": 558599.9821841046,
        "Argument of Periapsis(deg)": 0.004182941754134842,
        "Eccentricity": 0.0,
        "Inclination(deg)": 53.0,
        "Latitude(deg)": -19.04653874294744,
        "Longitude(deg)": -90.4822054171802,
        "Mean Anomaly(deg)": -156.1144255573194,
        "RAAN(deg)": 174.99377475907033,
        "Satellite Name": "Starlink Shell 1 782",
        "Satellite Number": 782,
        "Semi-Major Axis(m)": 6931778.249405717,
        "Time(s)": 120
    },
    {
        "Altitude(m)": 558755.1644911804,
        "Argument of Periapsis(deg)": 0.004531520233646079,
        "Eccentricity": 0.0,
        "Inclination(deg)": 53.0,
        "Latitude(deg)": -19.531810652281234,
        "Longitude(deg)": -90.10146391348778,
        "Mean Anomaly(deg)": -155.48759435376274,
        "RAAN(deg)": 174.99325598899287,
        "Satellite Name": "Starlink Shell 1 782",
        "Satellite Number": 782,
        "Semi-Major Axis(m)": 6931778.249405717,
        "Time(s)": 130
    },
    {
        "Altitude(m)": 558911.8628053732,
        "Argument of Periapsis(deg)": 0.0048800987131573164,
        "Eccentricity": 0.0,
        "Inclination(deg)": 53.0,
        "Latitude(deg)": -20.016051174255125,
        "Longitude(deg)": -89.71821154611862,
        "Mean Anomaly(deg)": -154.86076315020597,
        "RAAN(deg)": 174.99273721891538,
        "Satellite Name": "Starlink Shell 1 782",
        "Satellite Number": 782,
        "Semi-Major Axis(m)": 6931778.249405717,
        "Time(s)": 140
    },
    {
        "Altitude(m)": 559070.0229901011,
        "Argument of Periapsis(deg)": 0.005228677192668553,
        "Eccentricity": 0.0,
        "Inclination(deg)": 53.0,
        "Latitude(deg)": -20.499227174801504,
        "Longitude(deg)": -89.332370647402,
        "Mean Anomaly(deg)": -154.23393194664928,
        "RAAN(deg)": 174.99221844883792,
        "Satellite Name": "Starlink Shell 1 782",
        "Satellite Number": 782,
        "Semi-Major Axis(m)": 6931778.249405717,
        "Time(s)": 150
    },
    {
        "Altitude(m)": 559229.5901076435,
        "Argument of Periapsis(deg)": 0.00557725567217979,
        "Eccentricity": 0.0,
        "Inclination(deg)": 53.0,
        "Latitude(deg)": -20.98130492993528,
        "Longitude(deg)": -88.94386200770332,
        "Mean Anomaly(deg)": -153.6071007430926,
        "RAAN(deg)": 174.99169967876045,
        "Satellite Name": "Starlink Shell 1 782",
        "Satellite Number": 782,
        "Semi-Major Axis(m)": 6931778.249405717,
        "Time(s)": 160
    },
    {
        "Altitude(m)": 559390.5084435997,
        "Argument of Periapsis(deg)": 0.0059258341516910265,
        "Eccentricity": 0.0,
        "Inclination(deg)": 53.0,
        "Latitude(deg)": -21.46225010448027,
        "Longitude(deg)": -88.55260585993457,
        "Mean Anomaly(deg)": -152.98026953953584,
        "RAAN(deg)": 174.99118090868296,
        "Satellite Name": "Starlink Shell 1 782",
        "Satellite Number": 782,
        "Semi-Major Axis(m)": 6931778.249405717,
        "Time(s)": 170
    },
    {
        "Altitude(m)": 559552.7215317358,
        "Argument of Periapsis(deg)": 0.006274412631202263,
        "Eccentricity": 0.0,
        "Inclination(deg)": 53.0,
        "Latitude(deg)": -21.942027730319406,
        "Longitude(deg)": -88.15852135174576,
        "Mean Anomaly(deg)": -152.35343833597912,
        "RAAN(deg)": 174.9906621386055,
        "Satellite Name": "Starlink Shell 1 782",
        "Satellite Number": 782,
        "Semi-Major Axis(m)": 6931778.249405717,
        "Time(s)": 180
    }
]